start=new Date('2021-10-23T00:00:00.000Z').valueOf();
sats=[{"EPOCH":"2021-10-22T15:51:18.395712","MEAN_MOTION_DOT":"0.00001682","APOAPSIS":"548.047","OBJECT_NAME":"STARLINK-1752","EPHEMERIS_TYPE":"0","BSTAR":"0.00013179000000","FILE":"3179071","MEAN_MOTION":"15.06394549","OBJECT_ID":"2020-062P","RA_OF_ASC_NODE":"354.9314","MEAN_MOTION_DDOT":"0.0000000000000","SEMIMAJOR_AXIS":"6925.365","PERIAPSIS":"546.414","CLASSIFICATION_TYPE":"U","DECAY_DATE":null,"SITE":"AFETR","CENTER_NAME":"EARTH","ARG_OF_PERICENTER":"85.6430","TLE_LINE1":"1 46338U 20062P   21295.66062958  .00001682  00000-0  13179-3 0  9996","TLE_LINE2":"2 46338  53.0552 354.9314 0001179  85.6430 274.4694 15.06394549 63291","REV_AT_EPOCH":"6329","OBJECT_TYPE":"PAYLOAD","LAUNCH_DATE":"2020-09-03","INCLINATION":"53.0552","PERIOD":"95.592","ELEMENT_SET_NO":"999","MEAN_ELEMENT_THEORY":"SGP4","TIME_SYSTEM":"UTC","MEAN_ANOMALY":"274.4694","REF_FRAME":"TEME","COUNTRY_CODE":"US","GP_ID":"187933593","NORAD_CAT_ID":"46338","RCS_SIZE":"LARGE","ECCENTRICITY":"0.00011790"},{"MEAN_MOTION_DDOT":"0.0000000000000","SEMIMAJOR_AXIS":"6697.230","CENTER_NAME":"EARTH","SITE":"AFETR","PERIAPSIS":"316.335","DECAY_DATE":null,"CLASSIFICATION_TYPE":"U","EPOCH":"2021-10-22T09:07:46.176384","MEAN_MOTION_DOT":"0.00093272","APOAPSIS":"321.856","OBJECT_NAME":"STARLINK-1757","RA_OF_ASC_NODE":"310.4123","EPHEMERIS_TYPE":"0","FILE":"3178676","MEAN_MOTION":"15.84017199","BSTAR":"0.00040646000000","OBJECT_ID":"2020-062Q","ELEMENT_SET_NO":"999","MEAN_ELEMENT_THEORY":"SGP4","TIME_SYSTEM":"UTC","ECCENTRICITY":"0.00041220","MEAN_ANOMALY":"38.6636","REF_FRAME":"TEME","COUNTRY_CODE":"US","NORAD_CAT_ID":"46339","GP_ID":"187901996","RCS_SIZE":"LARGE","TLE_LINE1":"1 46339U 20062Q   21295.38039556  .00093272  00000-0  40646-3 0  9999","TLE_LINE2":"2 46339  53.0521 310.4123 0004122 321.4092  38.6636 15.84017199 63902","ARG_OF_PERICENTER":"321.4092","LAUNCH_DATE":"2020-09-03","OBJECT_TYPE":"PAYLOAD","INCLINATION":"53.0521","PERIOD":"90.908","REV_AT_EPOCH":"6390"},{"RA_OF_ASC_NODE":"355.9537","OBJECT_ID":"2020-062R","BSTAR":"-0.00025711000000","FILE":"3178676","MEAN_MOTION":"15.06404162","EPHEMERIS_TYPE":"0","OBJECT_NAME":"STARLINK-1759","APOAPSIS":"548.505","EPOCH":"2021-10-22T10:26:11.275872","MEAN_MOTION_DOT":"-0.00004110","CENTER_NAME":"EARTH","SITE":"AFETR","CLASSIFICATION_TYPE":"U","DECAY_DATE":null,"PERIAPSIS":"545.897","MEAN_MOTION_DDOT":"0.0000000000000","SEMIMAJOR_AXIS":"6925.336","PERIOD":"95.592","INCLINATION":"53.0548","OBJECT_TYPE":"PAYLOAD","LAUNCH_DATE":"2020-09-03","REV_AT_EPOCH":"6326","TLE_LINE2":"2 46340  53.0548 355.9537 0001883 106.8740 253.2456 15.06404162 63260","TLE_LINE1":"1 46340U 20062R   21295.43485273 -.00004110  00000-0 -25711-3 0  9999","ARG_OF_PERICENTER":"106.8740","ECCENTRICITY":"0.00018830","GP_ID":"187902248","NORAD_CAT_ID":"46340","RCS_SIZE":"LARGE","COUNTRY_CODE":"US","REF_FRAME":"TEME","MEAN_ANOMALY":"253.2456","TIME_SYSTEM":"UTC","MEAN_ELEMENT_THEORY":"SGP4","ELEMENT_SET_NO":"999"},{"SEMIMAJOR_AXIS":"6925.406","MEAN_MOTION_DDOT":"0.0000000000000","SITE":"AFETR","CENTER_NAME":"EARTH","PERIAPSIS":"546.279","CLASSIFICATION_TYPE":"U","DECAY_DATE":null,"MEAN_MOTION_DOT":"0.00000397","EPOCH":"2021-10-22T12:11:03.714432","APOAPSIS":"548.262","OBJECT_NAME":"STARLINK-1760","RA_OF_ASC_NODE":"335.6396","EPHEMERIS_TYPE":"0","FILE":"3179071","BSTAR":"0.00004557100000","MEAN_MOTION":"15.06381417","OBJECT_ID":"2020-062S","TIME_SYSTEM":"UTC","MEAN_ELEMENT_THEORY":"SGP4","ELEMENT_SET_NO":"999","ECCENTRICITY":"0.00014320","MEAN_ANOMALY":"275.8480","REF_FRAME":"TEME","COUNTRY_CODE":"US","RCS_SIZE":"LARGE","GP_ID":"187932845","NORAD_CAT_ID":"46341","TLE_LINE1":"1 46341U 20062S   21295.50768188  .00000397  00000-0  45571-4 0  9995","TLE_LINE2":"2 46341  53.0537 335.6396 0001432  84.2672 275.8480 15.06381417 63567","ARG_OF_PERICENTER":"84.2672","OBJECT_TYPE":"PAYLOAD","LAUNCH_DATE":"2020-09-03","INCLINATION":"53.0537","PERIOD":"95.593","REV_AT_EPOCH":"6356"},{"RA_OF_ASC_NODE":"355.7258","EPHEMERIS_TYPE":"0","MEAN_MOTION":"15.06394829","FILE":"3178676","BSTAR":"0.00016895000000","OBJECT_ID":"2020-062T","MEAN_MOTION_DOT":"0.00002236","EPOCH":"2021-10-22T11:41:50.629920","APOAPSIS":"548.151","OBJECT_NAME":"STARLINK-1762","SITE":"AFETR","CENTER_NAME":"EARTH","PERIAPSIS":"546.308","DECAY_DATE":null,"CLASSIFICATION_TYPE":"U","SEMIMAJOR_AXIS":"6925.364","MEAN_MOTION_DDOT":"0.0000000000000","LAUNCH_DATE":"2020-09-03","OBJECT_TYPE":"PAYLOAD","INCLINATION":"53.0547","PERIOD":"95.592","REV_AT_EPOCH":"6327","TLE_LINE1":"1 46342U 20062T   21295.48739155  .00002236  00000-0  16895-3 0  9995","TLE_LINE2":"2 46342  53.0547 355.7258 0001331  85.0152 275.0989 15.06394829 63274","ARG_OF_PERICENTER":"85.0152","ECCENTRICITY":"0.00013310","MEAN_ANOMALY":"275.0989","REF_FRAME":"TEME","COUNTRY_CODE":"US","RCS_SIZE":"LARGE","GP_ID":"187901746","NORAD_CAT_ID":"46342","ELEMENT_SET_NO":"999","MEAN_ELEMENT_THEORY":"SGP4","TIME_SYSTEM":"UTC"},{"OBJECT_TYPE":"PAYLOAD","LAUNCH_DATE":"2020-09-03","INCLINATION":"53.0558","PERIOD":"95.593","REV_AT_EPOCH":"6357","TLE_LINE1":"1 46343U 20062U   21295.61455046 -.00000421  00000-0 -94078-5 0  9992","TLE_LINE2":"2 46343  53.0558 335.1507 0001084  89.9162 270.1951 15.06394119 63575","ARG_OF_PERICENTER":"89.9162","ECCENTRICITY":"0.00010840","MEAN_ANOMALY":"270.1951","REF_FRAME":"TEME","COUNTRY_CODE":"US","GP_ID":"187933846","RCS_SIZE":"LARGE","NORAD_CAT_ID":"46343","MEAN_ELEMENT_THEORY":"SGP4","TIME_SYSTEM":"UTC","ELEMENT_SET_NO":"999","RA_OF_ASC_NODE":"335.1507","EPHEMERIS_TYPE":"0","MEAN_MOTION":"15.06394119","FILE":"3179071","BSTAR":"-0.00000940780000","OBJECT_ID":"2020-062U","MEAN_MOTION_DOT":"-0.00000421","EPOCH":"2021-10-22T14:44:57.159744","OBJECT_NAME":"STARLINK-1764","APOAPSIS":"547.982","CENTER_NAME":"EARTH","SITE":"AFETR","PERIAPSIS":"546.481","DECAY_DATE":null,"CLASSIFICATION_TYPE":"U","MEAN_MOTION_DDOT":"0.0000000000000","SEMIMAJOR_AXIS":"6925.367"},{"APOAPSIS":"548.038","OBJECT_NAME":"STARLINK-1765","EPOCH":"2021-10-22T15:11:31.444512","MEAN_MOTION_DOT":"0.00002435","RA_OF_ASC_NODE":"335.0638","OBJECT_ID":"2020-062V","FILE":"3179071","MEAN_MOTION":"15.06389273","BSTAR":"0.00018233000000","EPHEMERIS_TYPE":"0","SEMIMAJOR_AXIS":"6925.381","MEAN_MOTION_DDOT":"0.0000000000000","SITE":"AFETR","CENTER_NAME":"EARTH","DECAY_DATE":null,"CLASSIFICATION_TYPE":"U","PERIAPSIS":"546.455","TLE_LINE2":"2 46344  53.0545 335.0638 0001143  77.0091 283.1026 15.06389273 63573","TLE_LINE1":"1 46344U 20062V   21295.63300283  .00002435  00000-0  18233-3 0  9999","ARG_OF_PERICENTER":"77.0091","PERIOD":"95.593","INCLINATION":"53.0545","LAUNCH_DATE":"2020-09-03","OBJECT_TYPE":"PAYLOAD","REV_AT_EPOCH":"6357","MEAN_ELEMENT_THEORY":"SGP4","ELEMENT_SET_NO":"999","TIME_SYSTEM":"UTC","ECCENTRICITY":"0.00011430","RCS_SIZE":"LARGE","GP_ID":"187934596","NORAD_CAT_ID":"46344","COUNTRY_CODE":"US","REF_FRAME":"TEME","MEAN_ANOMALY":"283.1026"},{"ELEMENT_SET_NO":"999","TIME_SYSTEM":"UTC","MEAN_ELEMENT_THEORY":"SGP4","REF_FRAME":"TEME","MEAN_ANOMALY":"274.5812","RCS_SIZE":"LARGE","GP_ID":"187933344","NORAD_CAT_ID":"46345","COUNTRY_CODE":"US","ECCENTRICITY":"0.00012430","ARG_OF_PERICENTER":"85.5319","TLE_LINE1":"1 46345U 20062W   21295.50214611 -.00000213  00000-0  45643-5 0  9995","TLE_LINE2":"2 46345  53.0552 355.6445 0001243  85.5319 274.5812 15.06383096 63275","REV_AT_EPOCH":"6327","LAUNCH_DATE":"2020-09-03","OBJECT_TYPE":"PAYLOAD","PERIOD":"95.593","INCLINATION":"53.0552","SEMIMAJOR_AXIS":"6925.400","MEAN_MOTION_DDOT":"0.0000000000000","CLASSIFICATION_TYPE":"U","DECAY_DATE":null,"PERIAPSIS":"546.405","CENTER_NAME":"EARTH","SITE":"AFETR","MEAN_MOTION_DOT":"-0.00000213","EPOCH":"2021-10-22T12:03:05.423904","APOAPSIS":"548.126","OBJECT_NAME":"STARLINK-1767","EPHEMERIS_TYPE":"0","OBJECT_ID":"2020-062W","FILE":"3179071","MEAN_MOTION":"15.06383096","BSTAR":"0.00000456430000","RA_OF_ASC_NODE":"355.6445"},{"EPHEMERIS_TYPE":"0","OBJECT_ID":"2020-062X","MEAN_MOTION":"15.34258635","FILE":"3179071","BSTAR":"0.00013501000000","RA_OF_ASC_NODE":"245.4619","EPOCH":"2021-10-22T13:56:25.548864","MEAN_MOTION_DOT":"0.00004168","APOAPSIS":"464.109","OBJECT_NAME":"STARLINK-1546","DECAY_DATE":null,"CLASSIFICATION_TYPE":"U","PERIAPSIS":"462.142","CENTER_NAME":"EARTH","SITE":"AFETR","MEAN_MOTION_DDOT":"0.0000000000000","SEMIMAJOR_AXIS":"6841.260","REV_AT_EPOCH":"6483","LAUNCH_DATE":"2020-09-03","OBJECT_TYPE":"PAYLOAD","PERIOD":"93.856","INCLINATION":"53.0542","ARG_OF_PERICENTER":"72.9342","TLE_LINE1":"1 46346U 20062X   21295.58085126  .00004168  00000-0  13501-3 0  9999","TLE_LINE2":"2 46346  53.0542 245.4619 0001438  72.9342 287.1816 15.34258635 64834","REF_FRAME":"TEME","MEAN_ANOMALY":"287.1816","RCS_SIZE":"LARGE","GP_ID":"187933594","NORAD_CAT_ID":"46346","COUNTRY_CODE":"US","ECCENTRICITY":"0.00014380","TIME_SYSTEM":"UTC","MEAN_ELEMENT_THEORY":"SGP4","ELEMENT_SET_NO":"999"},{"PERIAPSIS":"546.217","CLASSIFICATION_TYPE":"U","DECAY_DATE":null,"SITE":"AFETR","CENTER_NAME":"EARTH","MEAN_MOTION_DDOT":"0.0000000000000","SEMIMAJOR_AXIS":"6925.376","FILE":"3178676","BSTAR":"0.00001876600000","MEAN_MOTION":"15.06391049","OBJECT_ID":"2020-062Y","EPHEMERIS_TYPE":"0","RA_OF_ASC_NODE":"310.8267","APOAPSIS":"548.265","OBJECT_NAME":"STARLINK-1547","EPOCH":"2021-10-22T11:02:42.896544","MEAN_MOTION_DOT":"-0.00000002","COUNTRY_CODE":"US","RCS_SIZE":"LARGE","GP_ID":"187901997","NORAD_CAT_ID":"46347","MEAN_ANOMALY":"274.9521","REF_FRAME":"TEME","ECCENTRICITY":"0.00014780","ELEMENT_SET_NO":"999","TIME_SYSTEM":"UTC","MEAN_ELEMENT_THEORY":"SGP4","REV_AT_EPOCH":"6388","INCLINATION":"53.0549","PERIOD":"95.593","LAUNCH_DATE":"2020-09-03","OBJECT_TYPE":"PAYLOAD","ARG_OF_PERICENTER":"85.1637","TLE_LINE2":"2 46347  53.0549 310.8267 0001478  85.1637 274.9521 15.06391049 63882","TLE_LINE1":"1 46347U 20062Y   21295.46021871 -.00000002  00000-0  18766-4 0  9997"}];
